{
  "norad_id": 68995,
  "name": "CAS500-2 RIDESHARE OBJECT R",
  "history": [
    {
      "epoch": "2026-05-09T20:00:04.000032Z",
      "apogee_km": 593.5524013045642,
      "perigee_km": 592.2585758186879,
      "latitude_deg": -33.53991183871594,
      "longitude_deg": -134.52220973989043,
      "height_km": 605.5208049862347,
      "semi_major_axis_km": 6971.042488561626,
      "eccentricity": 9.28e-05,
      "inclination_deg": 97.7393,
      "raan_deg": 27.9992,
      "arg_perigee_deg": 243.6802,
      "mean_anomaly_deg": 82.6901,
      "mean_motion_rev_day": 14.91613026
    }
  ]
}