CAS500-2 RIDESHARE OBJE*
1 68995U 26100R   26129.83337963 -.00058960  00000+0 -59210-2 0  9996
2 68995  97.7393  27.9992 0000928 243.6802  82.6901 14.91613026  2189
